TRANSPORTER-15 M        
1 66677U 25276M   25353.59923131  .00009158  00000+0  46126-3 0  9999
2 66677  97.4397  65.2316 0003817 279.7196  80.3606 15.17398982  3162
TRANSPORTER-15 N        
1 66678U 25276N   25353.47315635  .00005239  00000+0  26988-3 0  9991
2 66678  97.4435  65.1051 0004843 264.5662  95.5019 15.16808782  3148
TRANSPORTER-15 P        
1 66679U 25276P   25353.47408410  .00002898  00000+0  15148-3 0  9990
2 66679  97.4376  65.0895 0004626 273.2016  86.8688 15.16659761  3143
TRANSPORTER-15 Q        
1 66680U 25276Q   25353.47292251  .00002672  00000+0  13946-3 0  9990
2 66680  97.4411  65.1026 0005033 265.8218  94.2440 15.16781824  3141
TRANSPORTER-15 R        
1 66681U 25276R   25353.60104222  .00011030  00000+0  55560-3 0  9992
2 66681  97.4348  65.2178 0004944 289.7196  70.3504 15.17339099  3162
TRANSPORTER-15 S        
1 66682U 25276S   25353.47079463  .00007346  00000+0  37415-3 0  9990
2 66682  97.4471  65.1162 0004746 254.2477 105.8233 15.17073831  3141
TRANSPORTER-15 T        
1 66683U 25276T   25353.47137269  .00004722  00000+0  24249-3 0  9996
2 66683  97.4463  65.1138 0004607 258.1451 101.9266 15.16970051  3149
TRANSPORTER-15 U        
1 66684U 25276U   25352.14983106  .00010646  00000+0  53837-3 0  9996
2 66684  97.4490  63.8272 0004421 261.2980  98.7753 15.17214477  2945
TRANSPORTER-15 V        
1 66685U 25276V   25353.59977146  .00009795  00000+0  49331-3 0  9991
2 66685  97.4431  65.2408 0003974 278.7845  81.2938 15.17380939  3167
TRANSPORTER-15 W        
1 66686U 25276W   25353.47053828  .00002897  00000+0  15018-3 0  9992
2 66686  97.4454  65.1162 0004583 263.0125  97.0587 15.16958969  3140
TRANSPORTER-15 X        
1 66687U 25276X   25353.14531467  .00005549  00000+0  28699-3 0  9993
2 66687  97.4403  64.7687 0008496  65.7808 294.4312 15.16623915  3097
TRANSPORTER-15 Y        
1 66688U 25276Y   25353.46979255  .00004621  00000+0  23695-3 0  9991
2 66688  97.4445  65.1123 0003635 264.2799  95.8019 15.17036621  3145
